DUBAISAT-1              
1 35682U 09041B   26193.93265000  .00000422  00000+0  70006-4 0  9998
2 35682  98.0080 326.9130 0010085 356.0423   4.0705 14.75164754908896
OCEANSAT-2              
1 35931U 09051A   26194.22047994 -.00000125  00000+0 -59631-4 0  9992
2 35931  98.2319 178.4728 0017221 159.1876 200.9995 13.99656270882978
WORLDVIEW-2 (WV-2)      
1 35946U 09055A   26194.25850563  .00000038  00000+0  27118-4 0  9995
2 35946  98.4757 267.3531 0005233 134.5546 225.6069 14.37906621879392
SMOS                    
1 36036U 09059A   26193.97248845  .00000156  00000+0  63538-4 0  9999
2 36036  98.4426  20.9295 0001137  95.9522 264.1796 14.39735328877163
YAOGAN-7                
1 36110U 09069A   26194.15283378  .00000230  00000+0  39107-4 0  9992
2 36110  98.0036  79.8556 0023624 318.2451  41.6956 14.78034391893461
TANDEM-X                
1 36605U 10030A   26188.47915494  .00000386  00000+0  21566-4 0  9992
2 36605  97.4457 195.8973 0001887  94.3019 265.8431 15.19154052889726
CARTOSAT-2B             
1 36795U 10035A   26194.32529620  .00000430  00000+0  65782-4 0  9998
2 36795  97.9947 244.7057 0012592 104.6565 255.6043 14.78616766863714
YAOGAN-10               
1 36834U 10038A   26194.29880095  .00000828  00000+0  10238-3 0  9993
2 36834  97.8973 217.4946 0001593  83.2376  45.3307 14.85424319861085
COSMO-SKYMED 4          
1 37216U 10060A   26194.30027572 -.00000159  00000+0 -13429-4 0  9993
2 37216  97.8891  17.5225 0001523  83.7705 276.3682 14.82146979848438
RESOURCESAT-2           
1 37387U 11015A   26194.27142233  .00000031  00000+0  34493-4 0  9992
2 37387  98.7633 261.5315 0011485 176.4965 183.6294 14.21605607789881
HAIYANG-2A              
1 37781U 11043A   26194.32679579  .00000308  00000+0  37772-3 0  9994
2 37781  99.3398 196.4057 0002853  35.7926 324.3413 13.73482560750248
RASAT                   
1 37791U 11044D   26194.28431882  .00000175  00000+0  38718-4 0  9998
2 37791  98.0583 285.2831 0021891 108.3963 336.6978 14.68191322797015
SRMSAT                  
1 37841U 11058D   26194.22886302  .00000348  00000+0  45216-4 0  9997
2 37841  19.9713 261.8486 0011832 129.6886 263.2365 14.11580868761503
PLEIADES 1A             
1 38012U 11076F   26194.33414102 -.00000027  00000+0  39904-5 0  9998
2 38012  98.1975 269.0845 0001702  81.2626 353.4162 14.58545812775808
ZIYUAN 1-02C (ZY 1-02C) 
1 38038U 11079A   26194.30863355  .00000184  00000+0  74717-4 0  9997
2 38038  98.4068 261.0700 0005477 221.0608 226.8681 14.38234567762963
ARIRANG-3 (KOMPSAT-3)   
1 38338U 12025B   26194.30984510  .00000193  00000+0  47526-4 0  9997
2 38338  98.1184 151.3214 0006326  43.8555 316.3148 14.62228107755165
EXACTVIEW-1 (ADS-1B)    
1 38709U 12039C   26193.86946490  .00000033  00000+0  33754-4 0  9990
2 38709  98.9801 311.8429 0011950  97.5787 262.6750 14.24991882726361
SPOT 6                  
1 38755U 12047A   26194.33529859 -.00000037  00000+0  19630-5 0  9992
2 38755  98.2115 261.3364 0001109  84.2588 275.8738 14.58537635736864
PLEIADES 1B             
1 39019U 12068A   26194.28528543 -.00000023  00000+0  49520-5 0  9998
2 39019  98.1946 268.9764 0001590  80.4663 279.6716 14.58533308724657
GOKTURK 2               
1 39030U 12073A   26194.25639443  .00000483  00000+0  77734-4 0  9992
2 39030  97.6813  30.3805 0000908  85.9498 274.1816 14.75567993728350
LANDSAT 8               
1 39084U 13008A   26194.25664519  .00000165  00000+0  46699-4 0  9995
2 39084  98.2291 264.0809 0001331  94.3995 265.7355 14.57111119701690
SARAL                   
1 39086U 13009A   26194.29694453  .00000041  00000+0  30859-4 0  9996
2 39086  98.5554  20.5340 0001582 171.4909 188.6303 14.32895484699343
GAOFEN-1                
1 39150U 13018A   26194.28911289  .00000181  00000+0  33237-4 0  9994
2 39150  97.9092 265.8251 0016916 177.2467 182.8839 14.76516685712099
VNREDSAT 1              
1 39160U 13021B   26194.31869299  .00000179  00000+0  42056-4 0  9992
2 39160  97.9074 246.7303 0001632  80.5612 279.5776 14.64882241704112
ARIRANG-5 (KOMPSAT-5)   
1 39227U 13042A   26194.23728188  .00000482  00000+0  38738-4 0  9990
2 39227  97.6211  20.5723 0005606  63.9212 296.2591 15.04522972707779
SKYSAT-A                
1 39418U 13066C   26193.65279623  .00001555  00000+0  91024-4 0  9997
2 39418  97.3804 242.2385 0020249 222.7187 137.2471 15.13106553692338
DUBAISAT-2              
1 39419U 13066D   26194.24146052  .00003308  00000+0  20517-3 0  9999
2 39419  97.4572 183.7073 0009671 310.5560  49.4828 15.10369829690323
GPM-CORE                
1 39574U 14009C   26194.23370014  .00003436  00000+0  77771-4 0  9992
2 39574  64.9693 220.8607 0010993 261.4003  98.5892 15.45028882701833
SENTINEL-1A             
1 39634U 14016A   26194.28747376  .00000207  00000+0  53526-4 0  9996
2 39634  98.1783 201.4393 0001441  86.0983 274.0381 14.59200969653823
KAZEOSAT 1              
1 39731U 14024A   26194.24933118 -.00000045  00000+0 -78666-6 0  9996
2 39731  98.3204 266.0468 0001236  83.4586 276.6745 14.42036498642313
