OBJECT_NAME,OBJECT_ID,EPOCH,MEAN_MOTION,ECCENTRICITY,INCLINATION,RA_OF_ASC_NODE,ARG_OF_PERICENTER,MEAN_ANOMALY,EPHEMERIS_TYPE,CLASSIFICATION_TYPE,NORAD_CAT_ID,ELEMENT_SET_NO,REV_AT_EPOCH,BSTAR,MEAN_MOTION_DOT,MEAN_MOTION_DDOT
DUBAISAT-1,2009-041B,2026-07-12T22:23:00.960000,14.75164754,.00100853,98.0080,326.9130,356.0423,4.0705,0,U,35682,999,90889,.70005595E-4,.422E-5,0
OCEANSAT-2,2009-051A,2026-07-13T05:17:29.466816,13.99656270,.00172219,98.2319,178.4728,159.1876,200.9995,0,U,35931,999,88297,-.59630796E-4,-.125E-5,0
WORLDVIEW-2 (WV-2),2009-055A,2026-07-13T06:12:14.886432,14.37906621,.00052336,98.4757,267.3531,134.5546,225.6069,0,U,35946,999,87939,.27117648E-4,.38E-6,0
SMOS,2009-059A,2026-07-12T23:20:23.002080,14.39735328,.00011374,98.4426,20.9295,95.9522,264.1796,0,U,36036,999,87716,.63537807E-4,.156E-5,0
YAOGAN-7,2009-069A,2026-07-13T03:40:04.838592,14.78034391,.00236247,98.0036,79.8556,318.2451,41.6956,0,U,36110,999,89346,.39107253E-4,.23E-5,0
TANDEM-X,2010-030A,2026-07-07T11:29:58.986816,15.19154052,.0001887,97.4457,195.8973,94.3019,265.8431,0,U,36605,999,88972,.21566E-4,.386E-5,0
CARTOSAT-2B,2010-035A,2026-07-13T07:48:25.591680,14.78616766,.00125922,97.9947,244.7057,104.6565,255.6043,0,U,36795,999,86371,.6578205E-4,.43E-5,0
YAOGAN-10,2010-038A,2026-07-13T07:10:16.402080,14.85424319,.00015934,97.8973,217.4946,83.2376,45.3307,0,U,36834,999,86108,.10237837E-3,.828E-5,0
COSMO-SKYMED 4,2010-060A,2026-07-13T07:12:23.822208,14.82146979,.00015236,97.8891,17.5225,83.7705,276.3682,0,U,37216,999,84843,-.13429498E-4,-.159E-5,0
RESOURCESAT-2,2011-015A,2026-07-13T06:30:50.889312,14.21605607,.00114858,98.7633,261.5315,176.4965,183.6294,0,U,37387,999,78988,.34493365E-4,.31E-6,0
HAIYANG-2A,2011-043A,2026-07-13T07:50:35.156256,13.73482560,.0002853,99.3398,196.4057,35.7926,324.3413,0,U,37781,999,75024,.37771512E-3,.308E-5,0
RASAT,2011-044D,2026-07-13T06:49:25.146048,14.68191322,.00218912,98.0583,285.2831,108.3963,336.6978,0,U,37791,999,79701,.38718267E-4,.175E-5,0
SRMSAT,2011-058D,2026-07-13T05:29:33.764928,14.11580868,.00118326,19.9713,261.8486,129.6886,263.2365,0,U,37841,999,76150,.45215897E-4,.348E-5,0
PLEIADES 1A,2011-076F,2026-07-13T08:01:09.784128,14.58545812,.00017024,98.1975,269.0845,81.2626,353.4162,0,U,38012,999,77580,.3990382E-5,-.27E-6,0
ZIYUAN 1-02C (ZY 1-02C),2011-079A,2026-07-13T07:24:25.938720,14.38234567,.00054779,98.4068,261.0700,221.0608,226.8681,0,U,38038,999,76296,.74716722E-4,.184E-5,0
ARIRANG-3 (KOMPSAT-3),2012-025B,2026-07-13T07:26:10.616640,14.62228107,.00063266,98.1184,151.3214,43.8555,316.3148,0,U,38338,999,75516,.47525751E-4,.193E-5,0
EXACTVIEW-1 (ADS-1B),2012-039C,2026-07-12T20:52:01.767360,14.24991882,.00119506,98.9801,311.8429,97.5787,262.6750,0,U,38709,999,72636,.33754437E-4,.33E-6,0
SPOT 6,2012-047A,2026-07-13T08:02:49.798176,14.58537635,.00011099,98.2115,261.3364,84.2588,275.8738,0,U,38755,999,73686,.1962971E-5,-.37E-6,0
PLEIADES 1B,2012-068A,2026-07-13T06:50:48.661152,14.58533308,.000159,98.1946,268.9764,80.4663,279.6716,0,U,39019,999,72465,.4952046E-5,-.23E-6,0
GOKTURK 2,2012-073A,2026-07-13T06:09:12.478752,14.75567993,.00009083,97.6813,30.3805,85.9498,274.1816,0,U,39030,999,72835,.77734498E-4,.483E-5,0
LANDSAT 8,2013-008A,2026-07-13T06:09:34.144416,14.57111119,.00013312,98.2291,264.0809,94.3995,265.7355,0,U,39084,999,70169,.46699387E-4,.165E-5,0
SARAL,2013-009A,2026-07-13T07:07:36.007392,14.32895484,.00015828,98.5554,20.5340,171.4909,188.6303,0,U,39086,999,69934,.30859189E-4,.41E-6,0
GAOFEN-1,2013-018A,2026-07-13T06:56:19.353696,14.76516685,.00169162,97.9092,265.8251,177.2467,182.8839,0,U,39150,999,71209,.33236578E-4,.181E-5,0
VNREDSAT 1,2013-021B,2026-07-13T07:38:55.074336,14.64882241,.00016322,97.9074,246.7303,80.5612,279.5776,0,U,39160,999,70411,.42056051E-4,.179E-5,0
ARIRANG-5 (KOMPSAT-5),2013-042A,2026-07-13T05:41:41.154432,15.04522972,.00056062,97.6211,20.5723,63.9212,296.2591,0,U,39227,999,70777,.38738061E-4,.482E-5,0
SKYSAT-A,2013-066C,2026-07-12T15:40:01.594272,15.13106553,.00202499,97.3804,242.2385,222.7187,137.2471,0,U,39418,999,69233,.91024348E-4,.1555E-4,0
DUBAISAT-2,2013-066D,2026-07-13T05:47:42.188928,15.10369829,.00096713,97.4572,183.7073,310.5560,49.4828,0,U,39419,999,69032,.20516527E-3,.3308E-4,0
GPM-CORE,2014-009C,2026-07-13T05:36:31.692096,15.45028882,.0010993,64.9693,220.8607,261.4003,98.5892,0,U,39574,999,70183,.77771142E-4,.3436E-4,0
SENTINEL-1A,2014-016A,2026-07-13T06:53:57.732864,14.59200969,.00014414,98.1783,201.4393,86.0983,274.0381,0,U,39634,999,65382,.53526331E-4,.207E-5,0
KAZEOSAT 1,2014-024A,2026-07-13T05:59:02.213952,14.42036498,.00012366,98.3204,266.0468,83.4586,276.6745,0,U,39731,999,64231,-.786664E-6,-.45E-6,0
